QIANFAN-100             
1 66042U 25233K   25311.10902115  .00000779  00000+0  31888-3 0  9997
2 66042  88.9953  66.1320 0016056 147.1323 213.0872 14.26218093  2965
QIANFAN-101             
1 66043U 25233L   25311.24620995  .00000548  00000+0  22047-3 0  9997
2 66043  88.9953  66.1153 0016024 144.9517 215.2735 14.26637853  2988
QIANFAN-102             
1 66044U 25233M   25311.24922939  .00000922  00000+0  37846-3 0  9990
2 66044  88.9952  66.1156 0016436 146.8295 213.3932 14.26223364  2988
QIANFAN-103             
1 66045U 25233N   25311.24888672  .00000924  00000+0  37886-3 0  9992
2 66045  88.9953  66.1158 0015819 145.6222 214.5999 14.26252605  2989
QIANFAN-104             
1 66046U 25233P   25311.24863620  .00000930  00000+0  38136-3 0  9995
2 66046  88.9953  66.1158 0015805 147.8492 212.3669 14.26273362  2981
QIANFAN-105             
1 66047U 25233Q   25311.24817260  .00000918  00000+0  37599-3 0  9993
2 66047  88.9952  66.1156 0016001 147.9860 212.2310 14.26331657  2982
QIANFAN-106             
1 66048U 25233R   25311.24822110  .00000904  00000+0  37024-3 0  9992
2 66048  88.9953  66.1157 0015863 147.6507 212.5663 14.26314934  2988
QIANFAN-107             
1 66049U 25233S   25311.24797736  .00000908  00000+0  37171-3 0  9995
2 66049  88.9952  66.1155 0016659 145.8170 214.4100 14.26343827  2986
QIANFAN-108             
1 66050U 25233T   25311.24769916  .00000895  00000+0  36618-3 0  9996
2 66050  88.9952  66.1154 0016625 147.5029 212.7192 14.26356826  2987
CZ-6A R/B               
1 66051U 25233U   25311.29137787  .00000502  00000+0  10227-3 0  9990
2 66051  89.0292  66.0360 0085566  48.1925 312.6553 14.57015673  3052
2025-234A               
1 66053U 25234A   25311.25827188  .00037067  00000+0  15880-2 0  9995
2 66053  97.4611  16.7792 0014555 218.4327 141.5874 15.22579156  2914
2025-234B               
1 66054U 25234B   25311.26834794  .00010524  00000+0  47304-3 0  9994
2 66054  97.5037  16.8670 0014245 210.0611 149.9808 15.21231239  2919
