CCSDS_OMM_VERS = 2.0
CREATION_DATE  = 
ORIGINATOR     = 

OBJECT_NAME    = QIANFAN-100
OBJECT_ID      = 2025-233K
CENTER_NAME    = EARTH
REF_FRAME      = TEME
TIME_SYSTEM    = UTC
MEAN_ELEMENT_THEORY = SGP/SGP4

EPOCH          = 2025-11-07T02:36:59.427360
MEAN_MOTION    = 14.26218093
ECCENTRICITY   = .00160567
INCLINATION    = 88.9953
RA_OF_ASC_NODE = 66.1320
ARG_OF_PERICENTER = 147.1323
MEAN_ANOMALY   = 213.0872

EPHEMERIS_TYPE = 0
CLASSIFICATION_TYPE = U
NORAD_CAT_ID   = 66042
ELEMENT_SET_NO = 999
REV_AT_EPOCH   = 296
BSTAR          = .3188843E-3
MEAN_MOTION_DOT = .779E-5
MEAN_MOTION_DDOT = 0

CCSDS_OMM_VERS = 2.0
CREATION_DATE  = 
ORIGINATOR     = 

OBJECT_NAME    = QIANFAN-101
OBJECT_ID      = 2025-233L
CENTER_NAME    = EARTH
REF_FRAME      = TEME
TIME_SYSTEM    = UTC
MEAN_ELEMENT_THEORY = SGP/SGP4

EPOCH          = 2025-11-07T05:54:32.539680
MEAN_MOTION    = 14.26637853
ECCENTRICITY   = .00160242
INCLINATION    = 88.9953
RA_OF_ASC_NODE = 66.1153
ARG_OF_PERICENTER = 144.9517
MEAN_ANOMALY   = 215.2735

EPHEMERIS_TYPE = 0
CLASSIFICATION_TYPE = U
NORAD_CAT_ID   = 66043
ELEMENT_SET_NO = 999
REV_AT_EPOCH   = 298
BSTAR          = .22047169E-3
MEAN_MOTION_DOT = .548E-5
MEAN_MOTION_DDOT = 0

CCSDS_OMM_VERS = 2.0
CREATION_DATE  = 
ORIGINATOR     = 

OBJECT_NAME    = QIANFAN-102
OBJECT_ID      = 2025-233M
CENTER_NAME    = EARTH
REF_FRAME      = TEME
TIME_SYSTEM    = UTC
MEAN_ELEMENT_THEORY = SGP/SGP4

EPOCH          = 2025-11-07T05:58:53.419296
MEAN_MOTION    = 14.26223364
ECCENTRICITY   = .00164365
INCLINATION    = 88.9952
RA_OF_ASC_NODE = 66.1156
ARG_OF_PERICENTER = 146.8295
MEAN_ANOMALY   = 213.3932

EPHEMERIS_TYPE = 0
CLASSIFICATION_TYPE = U
NORAD_CAT_ID   = 66044
ELEMENT_SET_NO = 999
REV_AT_EPOCH   = 298
BSTAR          = .37845661E-3
MEAN_MOTION_DOT = .922E-5
MEAN_MOTION_DDOT = 0

CCSDS_OMM_VERS = 2.0
CREATION_DATE  = 
ORIGINATOR     = 

OBJECT_NAME    = QIANFAN-103
OBJECT_ID      = 2025-233N
CENTER_NAME    = EARTH
REF_FRAME      = TEME
TIME_SYSTEM    = UTC
MEAN_ELEMENT_THEORY = SGP/SGP4

EPOCH          = 2025-11-07T05:58:23.812608
MEAN_MOTION    = 14.26252605
ECCENTRICITY   = .00158198
INCLINATION    = 88.9953
RA_OF_ASC_NODE = 66.1158
ARG_OF_PERICENTER = 145.6222
MEAN_ANOMALY   = 214.5999

EPHEMERIS_TYPE = 0
CLASSIFICATION_TYPE = U
NORAD_CAT_ID   = 66045
ELEMENT_SET_NO = 999
REV_AT_EPOCH   = 298
BSTAR          = .37886408E-3
MEAN_MOTION_DOT = .924E-5
MEAN_MOTION_DDOT = 0

CCSDS_OMM_VERS = 2.0
CREATION_DATE  = 
ORIGINATOR     = 

OBJECT_NAME    = QIANFAN-104
OBJECT_ID      = 2025-233P
CENTER_NAME    = EARTH
REF_FRAME      = TEME
TIME_SYSTEM    = UTC
MEAN_ELEMENT_THEORY = SGP/SGP4

EPOCH          = 2025-11-07T05:58:02.167680
MEAN_MOTION    = 14.26273362
ECCENTRICITY   = .00158057
INCLINATION    = 88.9953
RA_OF_ASC_NODE = 66.1158
ARG_OF_PERICENTER = 147.8492
MEAN_ANOMALY   = 212.3669

EPHEMERIS_TYPE = 0
CLASSIFICATION_TYPE = U
NORAD_CAT_ID   = 66046
ELEMENT_SET_NO = 999
REV_AT_EPOCH   = 298
BSTAR          = .38136219E-3
MEAN_MOTION_DOT = .93E-5
MEAN_MOTION_DDOT = 0

CCSDS_OMM_VERS = 2.0
CREATION_DATE  = 
ORIGINATOR     = 

OBJECT_NAME    = QIANFAN-105
OBJECT_ID      = 2025-233Q
CENTER_NAME    = EARTH
REF_FRAME      = TEME
TIME_SYSTEM    = UTC
MEAN_ELEMENT_THEORY = SGP/SGP4

EPOCH          = 2025-11-07T05:57:22.112640
MEAN_MOTION    = 14.26331657
ECCENTRICITY   = .00160011
INCLINATION    = 88.9952
RA_OF_ASC_NODE = 66.1156
ARG_OF_PERICENTER = 147.9860
MEAN_ANOMALY   = 212.2310

EPHEMERIS_TYPE = 0
CLASSIFICATION_TYPE = U
NORAD_CAT_ID   = 66047
ELEMENT_SET_NO = 999
REV_AT_EPOCH   = 298
BSTAR          = .37598719E-3
MEAN_MOTION_DOT = .918E-5
MEAN_MOTION_DDOT = 0

CCSDS_OMM_VERS = 2.0
CREATION_DATE  = 
ORIGINATOR     = 

OBJECT_NAME    = QIANFAN-106
OBJECT_ID      = 2025-233R
CENTER_NAME    = EARTH
REF_FRAME      = TEME
TIME_SYSTEM    = UTC
MEAN_ELEMENT_THEORY = SGP/SGP4

EPOCH          = 2025-11-07T05:57:26.303040
MEAN_MOTION    = 14.26314934
ECCENTRICITY   = .00158636
INCLINATION    = 88.9953
RA_OF_ASC_NODE = 66.1157
ARG_OF_PERICENTER = 147.6507
MEAN_ANOMALY   = 212.5663

EPHEMERIS_TYPE = 0
CLASSIFICATION_TYPE = U
NORAD_CAT_ID   = 66048
ELEMENT_SET_NO = 999
REV_AT_EPOCH   = 298
BSTAR          = .37023848E-3
MEAN_MOTION_DOT = .904E-5
MEAN_MOTION_DDOT = 0

CCSDS_OMM_VERS = 2.0
CREATION_DATE  = 
ORIGINATOR     = 

OBJECT_NAME    = QIANFAN-107
OBJECT_ID      = 2025-233S
CENTER_NAME    = EARTH
REF_FRAME      = TEME
TIME_SYSTEM    = UTC
MEAN_ELEMENT_THEORY = SGP/SGP4

EPOCH          = 2025-11-07T05:57:05.243904
MEAN_MOTION    = 14.26343827
ECCENTRICITY   = .00166593
INCLINATION    = 88.9952
RA_OF_ASC_NODE = 66.1155
ARG_OF_PERICENTER = 145.8170
MEAN_ANOMALY   = 214.4100

EPHEMERIS_TYPE = 0
CLASSIFICATION_TYPE = U
NORAD_CAT_ID   = 66049
ELEMENT_SET_NO = 999
REV_AT_EPOCH   = 298
BSTAR          = .37171037E-3
MEAN_MOTION_DOT = .908E-5
MEAN_MOTION_DDOT = 0

CCSDS_OMM_VERS = 2.0
CREATION_DATE  = 
ORIGINATOR     = 

OBJECT_NAME    = QIANFAN-108
OBJECT_ID      = 2025-233T
CENTER_NAME    = EARTH
REF_FRAME      = TEME
TIME_SYSTEM    = UTC
MEAN_ELEMENT_THEORY = SGP/SGP4

EPOCH          = 2025-11-07T05:56:41.207424
MEAN_MOTION    = 14.26356826
ECCENTRICITY   = .00166251
INCLINATION    = 88.9952
RA_OF_ASC_NODE = 66.1154
ARG_OF_PERICENTER = 147.5029
MEAN_ANOMALY   = 212.7192

EPHEMERIS_TYPE = 0
CLASSIFICATION_TYPE = U
NORAD_CAT_ID   = 66050
ELEMENT_SET_NO = 999
REV_AT_EPOCH   = 298
BSTAR          = .36617674E-3
MEAN_MOTION_DOT = .895E-5
MEAN_MOTION_DDOT = 0

CCSDS_OMM_VERS = 2.0
CREATION_DATE  = 
ORIGINATOR     = 

OBJECT_NAME    = CZ-6A R/B
OBJECT_ID      = 2025-233U
CENTER_NAME    = EARTH
REF_FRAME      = TEME
TIME_SYSTEM    = UTC
MEAN_ELEMENT_THEORY = SGP/SGP4

EPOCH          = 2025-11-07T06:59:35.047968
MEAN_MOTION    = 14.57015673
ECCENTRICITY   = .00855669
INCLINATION    = 89.0292
RA_OF_ASC_NODE = 66.0360
ARG_OF_PERICENTER = 48.1925
MEAN_ANOMALY   = 312.6553

EPHEMERIS_TYPE = 0
CLASSIFICATION_TYPE = U
NORAD_CAT_ID   = 66051
ELEMENT_SET_NO = 999
REV_AT_EPOCH   = 305
BSTAR          = .10226627E-3
MEAN_MOTION_DOT = .502E-5
MEAN_MOTION_DDOT = 0

CCSDS_OMM_VERS = 2.0
CREATION_DATE  = 
ORIGINATOR     = 

OBJECT_NAME    = 2025-234A
OBJECT_ID      = 2025-234A
CENTER_NAME    = EARTH
REF_FRAME      = TEME
TIME_SYSTEM    = UTC
MEAN_ELEMENT_THEORY = SGP/SGP4

EPOCH          = 2025-11-07T06:11:54.690432
MEAN_MOTION    = 15.22579156
ECCENTRICITY   = .00145553
INCLINATION    = 97.4611
RA_OF_ASC_NODE = 16.7792
ARG_OF_PERICENTER = 218.4327
MEAN_ANOMALY   = 141.5874

EPHEMERIS_TYPE = 0
CLASSIFICATION_TYPE = U
NORAD_CAT_ID   = 66053
ELEMENT_SET_NO = 999
REV_AT_EPOCH   = 291
BSTAR          = .15880191E-2
MEAN_MOTION_DOT = .37067E-3
MEAN_MOTION_DDOT = 0

CCSDS_OMM_VERS = 2.0
CREATION_DATE  = 
ORIGINATOR     = 

OBJECT_NAME    = 2025-234B
OBJECT_ID      = 2025-234B
CENTER_NAME    = EARTH
REF_FRAME      = TEME
TIME_SYSTEM    = UTC
MEAN_ELEMENT_THEORY = SGP/SGP4

EPOCH          = 2025-11-07T06:26:25.262016
MEAN_MOTION    = 15.21231239
ECCENTRICITY   = .00142459
INCLINATION    = 97.5037
RA_OF_ASC_NODE = 16.8670
ARG_OF_PERICENTER = 210.0611
MEAN_ANOMALY   = 149.9808

EPHEMERIS_TYPE = 0
CLASSIFICATION_TYPE = U
NORAD_CAT_ID   = 66054
ELEMENT_SET_NO = 999
REV_AT_EPOCH   = 291
BSTAR          = .47304405E-3
MEAN_MOTION_DOT = .10524E-3
MEAN_MOTION_DDOT = 0

